[{"OBJECT_NAME":"YAOGAN-43 01D","OBJECT_ID":"2024-148D","EPOCH":"2026-03-09T10:27:16.254720","MEAN_MOTION":15.28369377,"ECCENTRICITY":0.00025569,"INCLINATION":35.001,"RA_OF_ASC_NODE":61.7102,"ARG_OF_PERICENTER":326.2473,"MEAN_ANOMALY":33.808,"EPHEMERIS_TYPE":0,"CLASSIFICATION_TYPE":"U","NORAD_CAT_ID":60461,"ELEMENT_SET_NO":999,"REV_AT_EPOCH":8700,"BSTAR":0.00037765912,"MEAN_MOTION_DOT":0.00010676,"MEAN_MOTION_DDOT":0},{"OBJECT_NAME":"STARLINK-32825","OBJECT_ID":"2025-018V","EPOCH":"2026-03-09T21:04:06.116448","MEAN_MOTION":15.30217584,"ECCENTRICITY":0.00012733,"INCLINATION":53.1575,"RA_OF_ASC_NODE":306.1323,"ARG_OF_PERICENTER":121.0443,"MEAN_ANOMALY":239.0683,"EPHEMERIS_TYPE":0,"CLASSIFICATION_TYPE":"U","NORAD_CAT_ID":62825,"ELEMENT_SET_NO":999,"REV_AT_EPOCH":6323,"BSTAR":0.0010203779,"MEAN_MOTION_DOT":0.0003,"MEAN_MOTION_DDOT":0}]
