YAOGAN-43 01D           
1 60461U 24148D   26068.43560480  .00010676  00000+0  37766-3 0  9999
2 60461  35.0010  61.7102 0002556 326.2473  33.8080 15.28369377 87008
STARLINK-32825          
1 62825U 25018V   26068.87784857  .00030000  00000+0  10204-2 0  9996
2 62825  53.1575 306.1323 0001273 121.0443 239.0683 15.30217584 63238
